      3.04          N: GNSS NAV DATA    M: Mixed            RINEX VERSION / TYPE
rineditnav          gnsstk              20211013 183631 UTC PGM / RUN BY / DATE
Merged GPS/GLO/GAL/BDS/QZS/SBAS/IRNSS navigation file       COMMENT
based on CONGO and MGEX tracking data                       COMMENT
DLR/GSOC: O. Montenbruck; P. Steigenberger                  COMMENT
ARL:UT: B. Renfro - Stripped to GAL subset for testing      COMMENT
  E02-E12 were hand-edited (datasources and health) to      COMMENT
  support testing of health detemination                    COMMENT
GAUT   .9313225746D-09  .000000000D+00 345600 2107        0 TIME SYSTEM CORR
GLUT  -.0000000000D+00  .000000000D+00 345600 2107        0 TIME SYSTEM CORR
GPUT  -.9313225746D-09 -.355271368D-14  61440 2108        0 TIME SYSTEM CORR
QZUT  -.9313225746D-09  .000000000D+00   8192 2108        0 TIME SYSTEM CORR
    18     0     0     0                                    LEAP SECONDS
                                                            END OF HEADER
G01 2020 05 29 02 00 00 -.386241357773D-03 -.363797880709D-11  .000000000000D+00
      .480000000000D+02 -.271250000000D+02  .430732227440D-08 -.136556066751D+01
     -.131502747536D-05  .991169631015D-02  .314973294735D-05  .515362366867D+04
      .439200000000D+06  .236555933952D-06  .307291947536D+01  .149011611938D-07
      .980486657159D+00  .325093750000D+03  .781778882126D+00 -.807926510525D-08
      .181078971237D-09  .100000000000D+01  .210700000000D+04  .000000000000D+00
      .200000000000D+01  .000000000000D+00  .512227416039D-08  .480000000000D+02
      .432018000000D+06  .400000000000D+01
E01 2020 05 29 01 30 00 -.866256130394D-03 -.798650034994D-11  .000000000000D+00
      .890000000000D+02  .329687500000D+02  .284476135287D-08  .105434497004D+00
      .143051147461D-05  .671299640089D-04  .842101871967D-05  .544060014725D+04
      .437400000000D+06  .763684511185D-07  .706662240256D+00 -.335276126862D-07
      .983003514088D+00  .171437500000D+03  .227553660430D+01 -.544736976196D-08
     -.541093967307D-09  .516000000000D+03  .210700000000D+04  .000000000000D+00
      .312000000000D+01  .000000000000D+00 -.186264514923D-08 -.209547579289D-08
      .438064000000D+06
E33 2020 05 29 01 30 00 -.466747209430D-03  .412114786741D-12  .000000000000D+00
      .890000000000D+02  .235000000000D+02  .290976406050D-08  .705411860767D+00
      .101886689663D-05  .237879692577D-03  .225193798542D-05  .544060727119D+04
      .437400000000D+06 -.745058059692D-07  .278572451972D+01 -.316649675369D-07
      .991563119452D+00  .310500000000D+03 -.399205534204D+00 -.577881213929D-08
      .243938732456D-09  .516000000000D+03  .210700000000D+04  .000000000000D+00
      .312000000000D+01  .000000000000D+00 -.535510480404D-08 -.605359673500D-08
      .438064000000D+06
